OBJECT_NAME,OBJECT_ID,EPOCH,MEAN_MOTION,ECCENTRICITY,INCLINATION,RA_OF_ASC_NODE,ARG_OF_PERICENTER,MEAN_ANOMALY,EPHEMERIS_TYPE,CLASSIFICATION_TYPE,NORAD_CAT_ID,ELEMENT_SET_NO,REV_AT_EPOCH,BSTAR,MEAN_MOTION_DOT,MEAN_MOTION_DDOT
STARLINK-31946,2024-106U,2026-04-16T01:26:47.863680,15.27575066,0.00013265,43.0009,121.8544,277.8607,82.2094,0,U,59940,999,9686,1.8845326e-05,2.56e-06,0.0
STARLINK-31948,2024-106V,2026-04-15T08:02:29.942592,15.27574525,0.000133,43.0013,122.3111,278.7791,81.291,0,U,59941,999,10616,-7.395121e-06,-4.66e-06,0.0
STARLINK-31900,2024-106W,2026-04-15T08:27:32.870592,15.27583957,0.00011228,43.0012,125.1492,290.7315,69.3416,0,U,59942,999,10613,0.00015437674,3.989e-05,0.0
STARLINK-31973,2024-106X,2026-04-16T07:23:04.303680,15.2757668,0.00015679,43.0024,120.2783,273.5818,86.4855,0,U,59943,999,10627,2.648209e-05,4.66e-06,0.0
STARLINK-31966,2024-106Y,2026-04-16T07:17:31.116768,15.27578373,0.00013792,43.0025,120.2426,261.9661,98.1034,0,U,59944,999,10632,2.8964205e-05,5.35e-06,0.0
STARLINK-11145 [DTC],2024-107A,2026-04-16T06:24:15.064992,15.69670849,0.0001358,53.1597,66.3348,94.9481,265.1692,0,U,59945,999,10804,7.6850853e-05,8.716e-05,0.0
STARLINK-11113 [DTC],2024-107C,2026-04-16T01:56:05.915328,15.69705247,0.00011227,53.1601,66.5627,104.7915,255.3227,0,U,59947,999,10802,9.115444e-06,5.16e-06,0.0
STARLINK-11123 [DTC],2024-107D,2026-04-16T01:35:03.654528,15.69703168,0.00011688,53.1595,67.2111,73.7027,286.412,0,U,59948,999,10807,1.142073e-06,-4.5e-06,0.0
STARLINK-11138 [DTC],2024-107E,2026-04-16T04:10:10.127712,15.69709161,0.00010372,53.1605,66.4467,85.0151,275.0986,0,U,59949,999,10809,1.242989e-06,-4.38e-06,0.0
STARLINK-11130 [DTC],2024-107F,2026-04-16T04:31:21.749088,15.69703117,0.00011633,53.1598,66.5488,82.9567,277.1583,0,U,59950,999,10803,2.819391e-06,-2.47e-06,0.0
STARLINK-11124 [DTC],2024-107H,2026-04-16T04:17:14.082144,15.69704116,0.00010771,53.1594,66.4834,87.3532,272.7609,0,U,59952,999,10810,1.5619927e-05,1.304e-05,0.0
STARLINK-11133 [DTC],2024-107K,2026-04-16T02:24:21.276000,15.69706387,0.00013017,53.1594,66.7005,100.2572,259.8592,0,U,59954,999,10802,1.7887729e-05,1.578e-05,0.0
STARLINK-11144 [DTC],2024-107L,2026-04-16T02:17:17.783808,15.69705587,0.00016776,53.1597,66.6708,136.3368,223.7783,0,U,59955,999,10808,1.6955361e-05,1.465e-05,0.0
STARLINK-11134 [DTC],2024-107M,2026-04-16T06:45:16.846272,15.69698638,0.00010982,53.1606,65.6936,89.1993,270.9151,0,U,59956,999,10798,5.179775e-06,3.9e-07,0.0
STARLINK-11142 [DTC],2024-107N,2026-04-16T02:03:09.677088,15.69710204,8.22e-05,53.1593,66.6037,88.3557,271.7555,0,U,59957,999,10803,3.73176e-06,-1.36e-06,0.0
STARLINK-31995,2024-107P,2026-04-16T02:12:21.923424,15.30188043,0.00018795,53.1602,251.7483,69.8297,290.2906,0,U,59958,999,10432,-1.6145251e-05,-8.38e-06,0.0
STARLINK-31989,2024-107Q,2026-04-15T16:38:55.076928,15.30201761,8.959e-05,53.1598,253.5304,79.3921,280.718,0,U,59959,999,10546,-1.6329833e-05,-8.43e-06,0.0
STARLINK-31856,2024-107R,2026-04-16T02:07:48.500256,15.30168796,0.00020058,53.1606,251.7302,84.1485,275.9745,0,U,59960,999,10552,0.00024192348,6.805e-05,0.0
STARLINK-31993,2024-107S,2026-04-15T20:05:14.940672,15.30197762,7.37e-05,53.1608,253.0007,78.9351,281.1733,0,U,59961,999,10542,2.2607769e-05,3.11e-06,0.0
STARLINK-31980,2024-107T,2026-04-15T15:33:43.583040,15.30194342,3.822e-05,53.1592,253.955,68.1957,291.9085,0,U,59962,999,10545,6.165801e-06,-1.76e-06,0.0
STARLINK-31991,2024-107U,2026-04-15T20:00:42.291648,15.30170261,0.00012086,53.1607,252.9793,70.2926,289.8206,0,U,59963,999,10548,0.00017136601,4.715e-05,0.0
STARLINK-31979,2024-107V,2026-04-15T20:11:19.768992,15.30198106,0.00010053,53.1582,253.0261,86.9503,273.1613,0,U,59964,999,10543,-1.7164033e-05,-8.67e-06,0.0
STARLINK-31978,2024-111A,2026-04-15T19:39:26.974944,15.30195599,6.925e-05,53.1601,263.4872,100.9004,259.2075,0,U,60016,999,10461,-1.032032e-06,-3.89e-06,0.0
STARLINK-31987,2024-111B,2026-04-15T22:38:25.577376,15.30193055,9.713e-05,53.1594,262.8394,98.1463,261.9648,0,U,60017,999,10469,2.1687105e-05,2.83e-06,0.0
STARLINK-31984,2024-111C,2026-04-16T03:09:57.214080,15.30191538,7.491e-05,53.1574,261.8819,65.2726,294.8353,0,U,60018,999,10461,4.287246e-06,-2.32e-06,0.0
STARLINK-31986,2024-111D,2026-04-15T17:31:57.144000,15.30199719,0.00011011,53.1596,263.6408,83.8931,276.2195,0,U,60019,999,10471,2.898219e-06,-2.73e-06,0.0
STARLINK-31883,2024-111E,2026-04-16T03:25:09.204096,15.30186594,8.65e-05,53.1587,261.9485,97.335,262.7749,0,U,60020,999,10471,-2.5790072e-05,-1.122e-05,0.0
STARLINK-31967,2024-111F,2026-04-16T03:43:13.010880,15.30201701,0.00012789,53.1606,261.3107,103.6653,256.449,0,U,60021,999,10478,-8.3582209e-05,-2.834e-05,0.0
STARLINK-31982,2024-111G,2026-04-15T16:35:43.919520,15.30188315,0.00011315,53.1604,263.4024,99.5953,260.5175,0,U,60022,999,10471,-8.057066e-06,-5.98e-06,0.0
