STARLINK-31946          
1 59940U 24106U   26106.06027620  .00000256  00000+0  18845-4 0  9990
2 59940  43.0009 121.8544 0001326 277.8607  82.2094 15.27575066 96867
STARLINK-31948          
1 59941U 24106V   26105.33506878 -.00000466  00000+0 -73951-5 0  9992
2 59941  43.0013 122.3111 0001330 278.7791  81.2910 15.27574525106168
STARLINK-31900          
1 59942U 24106W   26105.35246378  .00003989  00000+0  15438-3 0  9996
2 59942  43.0012 125.1492 0001122 290.7315  69.3416 15.27583957106130
STARLINK-31973          
1 59943U 24106X   26106.30768870  .00000466  00000+0  26482-4 0  9998
2 59943  43.0024 120.2783 0001567 273.5818  86.4855 15.27576680106270
STARLINK-31966          
1 59944U 24106Y   26106.30383237  .00000535  00000+0  28964-4 0  9993
2 59944  43.0025 120.2426 0001379 261.9661  98.1034 15.27578373106320
STARLINK-11145 [DTC]    
1 59945U 24107A   26106.26684103  .00008716  00000+0  76851-4 0  9993
2 59945  53.1597  66.3348 0001358  94.9481 265.1692 15.69670849108045
STARLINK-11113 [DTC]    
1 59947U 24107C   26106.08062402  .00000516  00000+0  91154-5 0  9991
2 59947  53.1601  66.5627 0001122 104.7915 255.3227 15.69705247108020
STARLINK-11123 [DTC]    
1 59948U 24107D   26106.06601452 -.00000450  00000+0  11421-5 0  9991
2 59948  53.1595  67.2111 0001168  73.7027 286.4120 15.69703168108070
STARLINK-11138 [DTC]    
1 59949U 24107E   26106.17372833 -.00000438  00000+0  12430-5 0  9999
2 59949  53.1605  66.4467 0001037  85.0151 275.0986 15.69709161108092
STARLINK-11130 [DTC]    
1 59950U 24107F   26106.18844617 -.00000247  00000+0  28194-5 0  9998
2 59950  53.1598  66.5488 0001163  82.9567 277.1583 15.69703117108031
STARLINK-11124 [DTC]    
1 59952U 24107H   26106.17863521  .00001304  00000+0  15620-4 0  9997
2 59952  53.1594  66.4834 0001077  87.3532 272.7609 15.69704116108106
STARLINK-11133 [DTC]    
1 59954U 24107K   26106.10024625  .00001578  00000+0  17888-4 0  9997
2 59954  53.1594  66.7005 0001301 100.2572 259.8592 15.69706387108020
STARLINK-11144 [DTC]    
1 59955U 24107L   26106.09534472  .00001465  00000+0  16955-4 0  9991
2 59955  53.1597  66.6708 0001677 136.3368 223.7783 15.69705587108081
STARLINK-11134 [DTC]    
1 59956U 24107M   26106.28144498  .00000039  00000+0  51798-5 0  9999
2 59956  53.1606  65.6936 0001098  89.1993 270.9151 15.69698638107980
STARLINK-11142 [DTC]    
1 59957U 24107N   26106.08552867 -.00000136  00000+0  37318-5 0  9992
2 59957  53.1593  66.6037 0000822  88.3557 271.7555 15.69710204108038
STARLINK-31995          
1 59958U 24107P   26106.09192041 -.00000838  00000+0 -16145-4 0  9992
2 59958  53.1602 251.7483 0001879  69.8297 290.2906 15.30188043104322
STARLINK-31989          
1 59959U 24107Q   26105.69369302 -.00000843  00000+0 -16330-4 0  9996
2 59959  53.1598 253.5304 0000895  79.3921 280.7180 15.30201761105463
STARLINK-31856          
1 59960U 24107R   26106.08875579  .00006805  00000+0  24192-3 0  9996
2 59960  53.1606 251.7302 0002005  84.1485 275.9745 15.30168796105527
STARLINK-31993          
1 59961U 24107S   26105.83697848  .00000311  00000+0  22608-4 0  9997
2 59961  53.1608 253.0007 0000737  78.9351 281.1733 15.30197762105420
STARLINK-31980          
1 59962U 24107T   26105.64842110 -.00000176  00000+0  61658-5 0  9990
2 59962  53.1592 253.9550 0000382  68.1957 291.9085 15.30194342105457
STARLINK-31991          
1 59963U 24107U   26105.83382282  .00004715  00000+0  17137-3 0  9994
2 59963  53.1607 252.9793 0001208  70.2926 289.8206 15.30170261105489
STARLINK-31979          
1 59964U 24107V   26105.84120103 -.00000867  00000+0 -17164-4 0  9995
2 59964  53.1582 253.0261 0001005  86.9503 273.1613 15.30198106105435
STARLINK-31978          
1 60016U 24111A   26105.81906221 -.00000389  00000+0 -10320-5 0  9997
2 60016  53.1601 263.4872 0000692 100.9004 259.2075 15.30195599104613
STARLINK-31987          
1 60017U 24111B   26105.94335159  .00000283  00000+0  21687-4 0  9996
2 60017  53.1594 262.8394 0000971  98.1463 261.9648 15.30193055104693
STARLINK-31984          
1 60018U 24111C   26106.13191220 -.00000232  00000+0  42872-5 0  9993
2 60018  53.1574 261.8819 0000749  65.2726 294.8353 15.30191538104617
STARLINK-31986          
1 60019U 24111D   26105.73052250 -.00000273  00000+0  28982-5 0  9999
2 60019  53.1596 263.6408 0001101  83.8931 276.2195 15.30199719104711
STARLINK-31883          
1 60020U 24111E   26106.14246764 -.00001122  00000+0 -25790-4 0  9990
2 60020  53.1587 261.9485 0000865  97.3350 262.7749 15.30186594104712
STARLINK-31967          
1 60021U 24111F   26106.15501170 -.00002834  00000+0 -83582-4 0  9991
2 60021  53.1606 261.3107 0001278 103.6653 256.4490 15.30201701104784
STARLINK-31982          
1 60022U 24111G   26105.69148055 -.00000598  00000+0 -80571-5 0  9990
2 60022  53.1604 263.4024 0001131  99.5953 260.5175 15.30188315104712
